NORAD_CAT_ID,OBJECT_NAME,OBJECT_TYPE,EPOCH,MEAN_MOTION,ECCENTRICITY,INCLINATION,RA_OF_ASC_NODE,ARG_OF_PERICENTER,MEAN_ANOMALY,BSTAR,MEAN_MOTION_DOT,MEAN_MOTION_DDOT,TLE_LINE0,TLE_LINE1,TLE_LINE2,SEMIMAJOR_AXIS,PERIOD,APOGEE,PERIGEE,DECAYED
52675.0,STARLINK-3934,PAYLOAD,2024-07-11 14:28:05,15.08866888,0.0001478,53.22,344.957,88.1382,271.9779,-0.0002932,-4.955e-05,0.0,0 STARLINK-3934,1 52675U 22053V   24193.60284309 -.00004955  00000-0 -29320-3 0  9992,2 52675  53.2200 344.9570 0001478  88.1382 271.9779 15.08866888119675,6917.798,95.436,540.686,538.641,0.0
52675.0,STARLINK-3934,PAYLOAD,2024-07-12 03:11:13,15.08818241,0.0001358,53.2187,342.5777,82.9511,277.1636,-0.00010411,-1.943e-05,0.0,0 STARLINK-3934,1 52675U 22053V   24194.13279454 -.00001943  00000-0 -10411-3 0  9991,2 52675  53.2187 342.5777 0001358  82.9511 277.1636 15.08818241119327,6917.947,95.439,540.751,538.872,0.0
52675.0,STARLINK-3934,PAYLOAD,2024-07-12 14:18:56,15.08811804,9.46e-05,53.2154,340.4943,79.7364,280.3735,-0.00014475,-2.589e-05,0.0,0 STARLINK-3934,1 52675U 22053V   24194.59648546 -.00002589  00000-0 -14475-3 0  9994,2 52675  53.2154 340.4943 0000946  79.7364 280.3735 15.08811804119824,6917.967,95.439,540.486,539.177,0.0
52675.0,STARLINK-3934,PAYLOAD,2024-07-12 19:05:04,15.08836891,9.79e-05,53.2171,339.6027,89.1786,270.9318,6.0839e-05,6.81e-06,0.0,0 STARLINK-3934,1 52675U 22053V   24194.79518645  .00000681  00000-0  60839-4 0  9997,2 52675  53.2171 339.6027 0000979  89.1786 270.9318 15.08836891119426,6917.89,95.438,540.432,539.078,0.0
52675.0,STARLINK-3934,PAYLOAD,2024-07-13 09:23:31,15.08847736,9.4e-05,53.2178,336.9245,87.297,272.813,7.829e-05,9.59e-06,0.0,0 STARLINK-3934,1 52675U 22053V   24195.39134114  .00000959  00000-0  78290-4 0  9997,2 52675  53.2178 336.9245 0000940  87.2970 272.8130 15.08847736119510,6917.857,95.437,540.372,539.071,0.0
52675.0,STARLINK-3934,PAYLOAD,2024-07-13 14:09:40,15.0886066,0.0001216,53.2173,336.0338,76.8488,283.2639,0.00018854,2.716e-05,0.0,0 STARLINK-3934,1 52675U 22053V   24195.59004902  .00002716  00000-0  18854-3 0  9992,2 52675  53.2173 336.0338 0001216  76.8488 283.2639 15.08860660119975,6917.817,95.436,540.523,538.841,0.0
52675.0,STARLINK-3934,PAYLOAD,2024-07-13 18:55:49,15.08865771,0.0001079,53.217,335.1419,76.0519,284.0593,0.00024076,3.549e-05,0.0,0 STARLINK-3934,1 52675U 22053V   24195.78876419  .00003549  00000-0  24076-3 0  9991,2 52675  53.2170 335.1419 0001079  76.0519 284.0593 15.08865771119578,6917.802,95.436,540.413,538.92,0.0
52675.0,STARLINK-3934,PAYLOAD,2024-07-14 02:52:45,15.08851878,0.0001026,53.2173,333.6534,91.4386,268.6724,0.00024815,3.665e-05,0.0,0 STARLINK-3934,1 52675U 22053V   24196.11997663  .00003665  00000-0  24815-3 0  9994,2 52675  53.2173 333.6534 0001026  91.4386 268.6724 15.08851878119620,6917.844,95.437,540.419,538.999,0.0
52675.0,STARLINK-3934,PAYLOAD,2024-07-14 12:25:05,15.08846439,0.0001322,53.2163,331.8696,94.934,265.1803,0.0003865,5.87e-05,0.0,0 STARLINK-3934,1 52675U 22053V   24196.51742030  .00005870  00000-0  38650-3 0  9996,2 52675  53.2163 331.8696 0001322  94.9340 265.1803 15.08846439119688,6917.861,95.437,540.64,538.811,0.0
52675.0,STARLINK-3934,PAYLOAD,2024-07-14 14:00:28,15.08848031,0.0001339,53.2167,331.5725,93.6077,266.5068,0.00038735,5.883e-05,0.0,0 STARLINK-3934,1 52675U 22053V   24196.58365928  .00005883  00000-0  38735-3 0  9998,2 52675  53.2167 331.5725 0001339  93.6077 266.5068 15.08848031120122,6917.856,95.437,540.647,538.795,0.0
52675.0,STARLINK-3934,PAYLOAD,2024-07-14 15:35:51,15.08849855,0.0001349,53.2167,331.2748,94.2401,265.8745,0.00040024,6.089e-05,0.0,0 STARLINK-3934,1 52675U 22053V   24196.64989819  .00006089  00000-0  40024-3 0  9999,2 52675  53.2167 331.2748 0001349  94.2401 265.8745 15.08849855120133,6917.85,95.437,540.648,538.782,0.0
52675.0,STARLINK-3934,PAYLOAD,2024-07-15 13:51:14,15.08850975,0.0001319,53.2169,327.1107,81.2033,278.9108,-3.4159e-05,-8.32e-06,0.0,0 STARLINK-3934,1 52675U 22053V   24197.57725311 -.00000832  00000-0 -34159-4 0  9992,2 52675  53.2169 327.1107 0001319  81.2033 278.9108 15.08850975120270,6917.847,95.437,540.624,538.799,0.0
52675.0,STARLINK-3934,PAYLOAD,2024-07-15 15:26:37,15.08852101,0.000124,53.2172,326.8148,86.0487,274.0647,-9.5762e-06,-4.4e-06,0.0,0 STARLINK-3934,1 52675U 22053V   24197.64349232 -.00000440  00000-0 -95762-5 0  9997,2 52675  53.2172 326.8148 0001240  86.0487 274.0647 15.08852101119854,6917.843,95.437,540.566,538.851,0.0
52675.0,STARLINK-3934,PAYLOAD,2024-07-16 12:06:38,15.08840708,0.0001313,53.2176,322.9495,88.0781,272.0362,9.2174e-05,1.179e-05,0.0,0 STARLINK-3934,1 52675U 22053V   24198.50461596  .00001179  00000-0  92174-4 0  9992,2 52675  53.2176 322.9495 0001313  88.0781 272.0362 15.08840708119986,6917.878,95.438,540.652,538.835,0.0
52675.0,STARLINK-3934,PAYLOAD,2024-07-16 13:42:01,15.08844111,0.0001445,53.2168,322.6524,90.851,269.2648,7.2949e-05,8.73e-06,0.0,0 STARLINK-3934,1 52675U 22053V   24198.57085404  .00000873  00000-0  72949-4 0  9997,2 52675  53.2168 322.6524 0001445  90.8510 269.2648 15.08844111120422,6917.868,95.437,540.732,538.733,0.0
52675.0,STARLINK-3934,PAYLOAD,2024-07-16 15:17:24,15.08852016,0.0001407,53.2181,322.3556,91.9224,268.1929,0.00014232,1.979e-05,0.0,0 STARLINK-3934,1 52675U 22053V   24198.63709026  .00001979  00000-0  14232-3 0  9995,2 52675  53.2181 322.3556 0001407  91.9224 268.1929 15.08852016120435,6917.844,95.437,540.682,538.735,0.0
52675.0,STARLINK-3934,PAYLOAD,2024-07-17 11:57:26,15.0883585,0.0001461,53.217,318.4893,98.0082,262.1076,3.9577e-05,3.42e-06,0.0,0 STARLINK-3934,1 52675U 22053V   24199.49822037  .00000342  00000-0  39577-4 0  9991,2 52675  53.2170 318.4893 0001461  98.0082 262.1076 15.08835850120134,6917.893,95.438,540.769,538.747,0.0
52675.0,STARLINK-3934,PAYLOAD,2024-07-17 15:08:12,15.08835408,0.0001452,53.2171,317.8963,92.4665,267.6493,4.0133e-05,3.51e-06,0.0,0 STARLINK-3934,1 52675U 22053V   24199.63070131  .00000351  00000-0  40133-4 0  9997,2 52675  53.2171 317.8963 0001452  92.4665 267.6493 15.08835408120582,6917.894,95.438,540.764,538.755,0.0
52675.0,STARLINK-3934,PAYLOAD,2024-07-18 13:23:36,15.08840034,0.0001397,53.2173,313.7344,91.7541,268.3611,1.5571e-05,-4e-07,0.0,0 STARLINK-3934,1 52675U 22053V   24200.55806340 -.00000040  00000-0  15571-4 0  9994,2 52675  53.2173 313.7344 0001397  91.7541 268.3611 15.08840034120294,6917.88,95.438,540.712,538.779,0.0
52675.0,STARLINK-3934,PAYLOAD,2024-07-18 14:58:59,15.08842619,0.0001478,53.2176,313.4366,89.2124,270.9037,4.3379e-05,4.03e-06,0.0,0 STARLINK-3934,1 52675U 22053V   24200.62430117  .00000403  00000-0  43379-4 0  9996,2 52675  53.2176 313.4366 0001478  89.2124 270.9037 15.08842619120738,6917.872,95.437,540.76,538.715,0.0
52675.0,STARLINK-3934,PAYLOAD,2024-07-19 14:49:46,15.08848736,0.0001644,53.2176,308.9764,64.2955,295.8207,0.00031448,4.722e-05,0.0,0 STARLINK-3934,1 52675U 22053V   24201.61790189  .00004722  00000-0  31448-3 0  9995,2 52675  53.2176 308.9764 0001644  64.2955 295.8207 15.08848736120886,6917.854,95.437,540.856,538.581,0.0
52675.0,STARLINK-3934,PAYLOAD,2024-07-20 13:05:10,15.08846118,0.0001115,53.2159,304.8122,86.7114,273.4005,9.3832e-05,1.206e-05,0.0,0 STARLINK-3934,1 52675U 22053V   24202.54525923  .00001206  00000-0  93832-4 0  9990,2 52675  53.2159 304.8122 0001115  86.7114 273.4005 15.08846118120597,6917.862,95.437,540.498,538.955,0.0
52675.0,STARLINK-3934,PAYLOAD,2024-07-20 14:40:33,15.08850951,0.0001251,53.2163,304.5148,76.7505,283.3627,0.00015294,2.148e-05,0.0,0 STARLINK-3934,1 52675U 22053V   24202.61149717  .00002148  00000-0  15294-3 0  9992,2 52675  53.2163 304.5148 0001251  76.7505 283.3627 15.08850951121031,6917.847,95.437,540.577,538.846,0.0
52675.0,STARLINK-3934,PAYLOAD,2024-07-21 12:55:57,15.08840041,0.0001635,53.2169,300.3496,90.7087,269.4093,-0.00011774,-2.161e-05,0.0,0 STARLINK-3934,1 52675U 22053V   24203.53886450 -.00002161  00000-0 -11774-3 0  9992,2 52675  53.2169 300.3496 0001635  90.7087 269.4093 15.08840041120742,6917.88,95.438,540.876,538.614,0.0
52675.0,STARLINK-3934,PAYLOAD,2024-07-22 09:35:58,15.08839807,0.0001542,53.2164,296.488,98.8403,261.2764,0.00014807,2.069e-05,0.0,0 STARLINK-3934,1 52675U 22053V   24204.39998648  .00002069  00000-0  14807-3 0  9995,2 52675  53.2164 296.4880 0001542  98.8403 261.2764 15.08839807121303,6917.881,95.438,540.813,538.679,0.0
52675.0,STARLINK-3934,PAYLOAD,2024-07-23 12:37:32,15.08832129,0.0001515,53.217,291.4336,103.7341,256.382,0.00072127,0.00011207,0.0,0 STARLINK-3934,1 52675U 22053V   24205.52607474  .00011207  00000-0  72127-3 0  9998,2 52675  53.2170 291.4336 0001515 103.7341 256.3820 15.08832129121047,6917.904,95.438,540.818,538.721,0.0
52675.0,STARLINK-3934,PAYLOAD,2024-07-24 09:17:33,15.08835235,0.0001334,53.2165,287.5664,96.9691,263.1453,-1.9711e-05,-6.02e-06,0.0,0 STARLINK-3934,1 52675U 22053V   24206.38719159 -.00000602  00000-0 -19711-4 0  9997,2 52675  53.2165 287.5664 0001334  96.9691 263.1453 15.08835235121602,6917.895,95.438,540.683,538.837,0.0
52675.0,STARLINK-3934,PAYLOAD,2024-07-25 04:22:10,15.08842495,0.000148,53.2156,283.9969,104.1759,255.9397,9.3528e-05,1.201e-05,0.0,0 STARLINK-3934,1 52675U 22053V   24207.18206753  .00001201  00000-0  93528-4 0  9999,2 52675  53.2156 283.9969 0001480 104.1759 255.9397 15.08842495121296,6917.873,95.437,540.762,538.714,0.0
52675.0,STARLINK-3934,PAYLOAD,2024-07-25 09:08:19,15.08850191,0.0001327,53.2162,283.1059,97.8091,262.3052,-1.7954e-05,-5.74e-06,0.0,0 STARLINK-3934,1 52675U 22053V   24207.38078388 -.00000574  00000-0 -17954-4 0  9995,2 52675  53.2162 283.1059 0001327  97.8091 262.3052 15.08850191121755,6917.849,95.437,540.632,538.796,0.0
52675.0,STARLINK-3934,PAYLOAD,2024-07-26 04:12:58,15.08834885,0.0001859,53.2173,279.5369,120.7446,239.373,-9.6456e-06,-4.42e-06,0.0,0 STARLINK-3934,1 52675U 22053V   24208.17567273 -.00000442  00000-0 -96456-5 0  9998,2 52675  53.2173 279.5369 0001859 120.7446 239.3730 15.08834885121445,6917.896,95.438,541.047,538.475,0.0
